2025-155V               
1 64895U 25155V   26068.85787115  .00013705  00000+0  51002-3 0  9990
2 64895  97.4485  37.2490 0008035 152.8264 207.3397 15.27583301 65579
STARLINK-35987          
1 66860U 25281N   26068.14110278  .00036526  00000+0  13311-2 0  9992
2 66860  43.0030 346.3973 0001766 282.2881  77.7773 15.27558690 16108
